start=new Date('2022-07-17T00:00:00.000Z').valueOf();
sats=[{"APOAPSIS":"548.243","EPHEMERIS_TYPE":"0","BSTAR":"0.00029591000000","OBJECT_TYPE":"PAYLOAD","SITE":"AFETR","INCLINATION":"53.0550","CENTER_NAME":"EARTH","REF_FRAME":"TEME","RCS_SIZE":"LARGE","REV_AT_EPOCH":"7591","MEAN_ANOMALY":"299.3392","MEAN_MOTION_DOT":"0.00004128","SEMIMAJOR_AXIS":"6925.380","EPOCH":"2022-07-16T20:37:33.398112","GP_ID":"208270079","OBJECT_ID":"2021-018Y","PERIOD":"95.593","MEAN_MOTION":"15.06389885","CLASSIFICATION_TYPE":"U","OBJECT_NAME":"STARLINK-2390","PERIAPSIS":"546.247","NORAD_CAT_ID":"47809","TLE_LINE1":"1 47809U 21018Y   22197.85941433  .00004128  00000-0  29591-3 0  9992","DECAY_DATE":null,"FILE":"3515618","MEAN_MOTION_DDOT":"0.0000000000000","ELEMENT_SET_NO":"999","LAUNCH_DATE":"2021-03-11","TIME_SYSTEM":"UTC","MEAN_ELEMENT_THEORY":"SGP4","TLE_LINE2":"2 47809  53.0550 110.4333 0001441  60.7741 299.3392 15.06389885 75910","ARG_OF_PERICENTER":"60.7741","ECCENTRICITY":"0.00014410","RA_OF_ASC_NODE":"110.4333","COUNTRY_CODE":"US"},{"OBJECT_NAME":"STARLINK-2391","PERIAPSIS":"546.386","OBJECT_ID":"2021-018Z","PERIOD":"95.593","CLASSIFICATION_TYPE":"U","MEAN_MOTION":"15.06388442","EPOCH":"2022-07-16T19:39:11.726208","SEMIMAJOR_AXIS":"6925.384","GP_ID":"208269830","MEAN_MOTION_DOT":"-0.00001205","MEAN_ANOMALY":"289.1403","RCS_SIZE":"LARGE","REV_AT_EPOCH":"7576","REF_FRAME":"TEME","SITE":"AFETR","CENTER_NAME":"EARTH","INCLINATION":"53.0527","OBJECT_TYPE":"PAYLOAD","EPHEMERIS_TYPE":"0","BSTAR":"-0.00006207100000","APOAPSIS":"548.112","COUNTRY_CODE":"US","ECCENTRICITY":"0.00012460","RA_OF_ASC_NODE":"120.6262","ARG_OF_PERICENTER":"70.9721","TLE_LINE2":"2 47810  53.0527 120.6262 0001246  70.9721 289.1403 15.06388442 75765","MEAN_ELEMENT_THEORY":"SGP4","TIME_SYSTEM":"UTC","LAUNCH_DATE":"2021-03-11","ELEMENT_SET_NO":"999","MEAN_MOTION_DDOT":"0.0000000000000","FILE":"3515618","DECAY_DATE":null,"TLE_LINE1":"1 47810U 21018Z   22197.81888572 -.00001205  00000-0 -62071-4 0  9990","NORAD_CAT_ID":"47810"},{"APOAPSIS":"548.205","EPHEMERIS_TYPE":"0","BSTAR":"0.00045942000000","OBJECT_TYPE":"PAYLOAD","CENTER_NAME":"EARTH","INCLINATION":"53.0542","SITE":"AFETR","REF_FRAME":"TEME","RCS_SIZE":"LARGE","REV_AT_EPOCH":"7619","MEAN_MOTION_DOT":"0.00006571","MEAN_ANOMALY":"283.9084","GP_ID":"208271080","SEMIMAJOR_AXIS":"6925.292","EPOCH":"2022-07-16T20:36:15.480864","MEAN_MOTION":"15.06418479","CLASSIFICATION_TYPE":"U","OBJECT_ID":"2021-018AA","PERIOD":"95.591","PERIAPSIS":"546.109","OBJECT_NAME":"STARLINK-2392","NORAD_CAT_ID":"47811","TLE_LINE1":"1 47811U 21018AA  22197.85851251  .00006571  00000-0  45942-3 0  9995","DECAY_DATE":null,"FILE":"3515618","MEAN_MOTION_DDOT":"0.0000000000000","ELEMENT_SET_NO":"999","LAUNCH_DATE":"2021-03-11","TIME_SYSTEM":"UTC","MEAN_ELEMENT_THEORY":"SGP4","TLE_LINE2":"2 47811  53.0542  90.4466 0001513  76.2074 283.9084 15.06418479 76199","ARG_OF_PERICENTER":"76.2074","RA_OF_ASC_NODE":"90.4466","ECCENTRICITY":"0.00015130","COUNTRY_CODE":"US"},{"CLASSIFICATION_TYPE":"U","MEAN_MOTION":"15.06389481","OBJECT_ID":"2021-018AB","PERIOD":"95.593","PERIAPSIS":"546.173","OBJECT_NAME":"STARLINK-2393","MEAN_MOTION_DOT":"0.00001554","MEAN_ANOMALY":"300.9523","RCS_SIZE":"LARGE","REV_AT_EPOCH":"7531","GP_ID":"208246778","EPOCH":"2022-07-16T11:57:25.896096","SEMIMAJOR_AXIS":"6925.381","CENTER_NAME":"EARTH","INCLINATION":"53.0536","SITE":"AFETR","REF_FRAME":"TEME","EPHEMERIS_TYPE":"0","BSTAR":"0.00012320000000","APOAPSIS":"548.319","OBJECT_TYPE":"PAYLOAD","RA_OF_ASC_NODE":"122.0655","ECCENTRICITY":"0.00015490","ARG_OF_PERICENTER":"59.1618","COUNTRY_CODE":"US","TIME_SYSTEM":"UTC","LAUNCH_DATE":"2021-03-11","TLE_LINE2":"2 47812  53.0536 122.0655 0001549  59.1618 300.9523 15.06389481 75319","MEAN_ELEMENT_THEORY":"SGP4","MEAN_MOTION_DDOT":"0.0000000000000","FILE":"3515497","ELEMENT_SET_NO":"999","NORAD_CAT_ID":"47812","DECAY_DATE":null,"TLE_LINE1":"1 47812U 21018AB  22197.49821639  .00001554  00000-0  12320-3 0  9993"},{"TIME_SYSTEM":"UTC","LAUNCH_DATE":"2021-03-11","TLE_LINE2":"2 47813  53.0546  90.3505 0001633  76.7018 283.4153 15.06413552 76193","MEAN_ELEMENT_THEORY":"SGP4","ECCENTRICITY":"0.00016330","RA_OF_ASC_NODE":"90.3505","ARG_OF_PERICENTER":"76.7018","COUNTRY_CODE":"US","NORAD_CAT_ID":"47813","DECAY_DATE":null,"TLE_LINE1":"1 47813U 21018AC  22197.88062579  .00006365  00000-0  44562-3 0  9995","MEAN_MOTION_DDOT":"0.0000000000000","FILE":"3515618","ELEMENT_SET_NO":"999","MEAN_ANOMALY":"283.4153","MEAN_MOTION_DOT":"0.00006365","RCS_SIZE":"LARGE","REV_AT_EPOCH":"7619","EPOCH":"2022-07-16T21:08:06.068256","SEMIMAJOR_AXIS":"6925.307","GP_ID":"208269580","PERIOD":"95.591","OBJECT_ID":"2021-018AC","CLASSIFICATION_TYPE":"U","MEAN_MOTION":"15.06413552","OBJECT_NAME":"STARLINK-2394","PERIAPSIS":"546.041","BSTAR":"0.00044562000000","EPHEMERIS_TYPE":"0","APOAPSIS":"548.303","OBJECT_TYPE":"PAYLOAD","SITE":"AFETR","CENTER_NAME":"EARTH","INCLINATION":"53.0546","REF_FRAME":"TEME"},{"TIME_SYSTEM":"UTC","LAUNCH_DATE":"2021-03-11","TLE_LINE2":"2 47814  53.0537 110.2379 0001993  72.0793 288.0413 15.06409160 75923","MEAN_ELEMENT_THEORY":"SGP4","RA_OF_ASC_NODE":"110.2379","ECCENTRICITY":"0.00019930","ARG_OF_PERICENTER":"72.0793","COUNTRY_CODE":"US","NORAD_CAT_ID":"47814","DECAY_DATE":null,"TLE_LINE1":"1 47814U 21018AD  22197.90458402  .00003477  00000-0  25212-3 0  9995","MEAN_MOTION_DDOT":"0.0000000000000","FILE":"3515618","ELEMENT_SET_NO":"999","MEAN_MOTION_DOT":"0.00003477","MEAN_ANOMALY":"288.0413","REV_AT_EPOCH":"7592","RCS_SIZE":"LARGE","EPOCH":"2022-07-16T21:42:36.059328","SEMIMAJOR_AXIS":"6925.320","GP_ID":"208270330","PERIOD":"95.592","OBJECT_ID":"2021-018AD","CLASSIFICATION_TYPE":"U","MEAN_MOTION":"15.06409160","OBJECT_NAME":"STARLINK-2395","PERIAPSIS":"545.805","EPHEMERIS_TYPE":"0","BSTAR":"0.00025212000000","APOAPSIS":"548.566","OBJECT_TYPE":"PAYLOAD","SITE":"AFETR","INCLINATION":"53.0537","CENTER_NAME":"EARTH","REF_FRAME":"TEME"},{"DECAY_DATE":null,"TLE_LINE1":"1 47815U 21018AE  22197.47194795  .00006571  00000-0  45950-3 0  9999","NORAD_CAT_ID":"47815","ELEMENT_SET_NO":"999","MEAN_MOTION_DDOT":"0.0000000000000","FILE":"3515362","TLE_LINE2":"2 47815  53.0539 107.1783 0001685  58.5526 301.5628 15.06407800 75862","MEAN_ELEMENT_THEORY":"SGP4","TIME_SYSTEM":"UTC","LAUNCH_DATE":"2021-03-11","COUNTRY_CODE":"US","ECCENTRICITY":"0.00016850","RA_OF_ASC_NODE":"107.1783","ARG_OF_PERICENTER":"58.5526","OBJECT_TYPE":"PAYLOAD","EPHEMERIS_TYPE":"0","BSTAR":"0.00045950000000","APOAPSIS":"548.357","REF_FRAME":"TEME","SITE":"AFETR","INCLINATION":"53.0539","CENTER_NAME":"EARTH","EPOCH":"2022-07-16T11:19:36.302880","SEMIMAJOR_AXIS":"6925.325","GP_ID":"208240797","MEAN_MOTION_DOT":"0.00006571","MEAN_ANOMALY":"301.5628","RCS_SIZE":"LARGE","REV_AT_EPOCH":"7586","OBJECT_NAME":"STARLINK-2396","PERIAPSIS":"546.023","OBJECT_ID":"2021-018AE","PERIOD":"95.592","CLASSIFICATION_TYPE":"U","MEAN_MOTION":"15.06407800"},{"SITE":"AFETR","INCLINATION":"53.0538","CENTER_NAME":"EARTH","REF_FRAME":"TEME","APOAPSIS":"548.244","BSTAR":"0.00025857000000","EPHEMERIS_TYPE":"0","OBJECT_TYPE":"PAYLOAD","OBJECT_ID":"2021-018AF","PERIOD":"95.592","MEAN_MOTION":"15.06402992","CLASSIFICATION_TYPE":"U","OBJECT_NAME":"STARLINK-2399","PERIAPSIS":"546.165","REV_AT_EPOCH":"7579","RCS_SIZE":"LARGE","MEAN_MOTION_DOT":"0.00003572","MEAN_ANOMALY":"292.6483","SEMIMAJOR_AXIS":"6925.339","EPOCH":"2022-07-16T11:32:12.497280","GP_ID":"208239546","FILE":"3515362","MEAN_MOTION_DDOT":"0.0000000000000","ELEMENT_SET_NO":"999","NORAD_CAT_ID":"47816","TLE_LINE1":"1 47816U 21018AF  22197.48070020  .00003572  00000-0  25857-3 0  9997","DECAY_DATE":null,"ARG_OF_PERICENTER":"67.4665","RA_OF_ASC_NODE":"112.1392","ECCENTRICITY":"0.00015010","COUNTRY_CODE":"US","LAUNCH_DATE":"2021-03-11","TIME_SYSTEM":"UTC","MEAN_ELEMENT_THEORY":"SGP4","TLE_LINE2":"2 47816  53.0538 112.1392 0001501  67.4665 292.6483 15.06402992 75792"},{"TLE_LINE2":"2 47817  53.0542 110.2835 0001613  69.5491 290.5671 15.06404358 75854","MEAN_ELEMENT_THEORY":"SGP4","TIME_SYSTEM":"UTC","LAUNCH_DATE":"2021-03-11","COUNTRY_CODE":"US","RA_OF_ASC_NODE":"110.2835","ECCENTRICITY":"0.00016130","ARG_OF_PERICENTER":"69.5491","DECAY_DATE":null,"TLE_LINE1":"1 47817U 21018AG  22197.89722073  .00005968  00000-0  41913-3 0  9997","NORAD_CAT_ID":"47817","ELEMENT_SET_NO":"999","MEAN_MOTION_DDOT":"0.0000000000000","FILE":"3515618","EPOCH":"2022-07-16T21:31:59.871072","SEMIMAJOR_AXIS":"6925.335","GP_ID":"208270080","MEAN_ANOMALY":"290.5671","MEAN_MOTION_DOT":"0.00005968","RCS_SIZE":"LARGE","REV_AT_EPOCH":"7585","OBJECT_NAME":"STARLINK-2400","PERIAPSIS":"546.083","PERIOD":"95.592","OBJECT_ID":"2021-018AG","CLASSIFICATION_TYPE":"U","MEAN_MOTION":"15.06404358","OBJECT_TYPE":"PAYLOAD","BSTAR":"0.00041913000000","EPHEMERIS_TYPE":"0","APOAPSIS":"548.317","REF_FRAME":"TEME","SITE":"AFETR","INCLINATION":"53.0542","CENTER_NAME":"EARTH"},{"GP_ID":"208269831","EPOCH":"2022-07-16T20:34:13.944576","SEMIMAJOR_AXIS":"6925.328","MEAN_MOTION_DOT":"0.00002383","MEAN_ANOMALY":"288.3891","REV_AT_EPOCH":"7578","RCS_SIZE":"LARGE","PERIAPSIS":"546.091","OBJECT_NAME":"STARLINK-2401","CLASSIFICATION_TYPE":"U","MEAN_MOTION":"15.06406632","PERIOD":"95.592","OBJECT_ID":"2021-018AH","OBJECT_TYPE":"PAYLOAD","EPHEMERIS_TYPE":"0","BSTAR":"0.00017877000000","APOAPSIS":"548.295","REF_FRAME":"TEME","CENTER_NAME":"EARTH","INCLINATION":"53.0533","SITE":"AFETR","TLE_LINE2":"2 47818  53.0533 115.4381 0001591  71.7271 288.3891 15.06406632 75782","MEAN_ELEMENT_THEORY":"SGP4","TIME_SYSTEM":"UTC","LAUNCH_DATE":"2021-03-11","COUNTRY_CODE":"US","ECCENTRICITY":"0.00015910","RA_OF_ASC_NODE":"115.4381","ARG_OF_PERICENTER":"71.7271","DECAY_DATE":null,"TLE_LINE1":"1 47818U 21018AH  22197.85710584  .00002383  00000-0  17877-3 0  9998","NORAD_CAT_ID":"47818","ELEMENT_SET_NO":"999","MEAN_MOTION_DDOT":"0.0000000000000","FILE":"3515618"}];
